CTC1_L_00580007-03
1 10062U 23188OC  26075.70038194  .00000000  00000+0  00000-0 0  9992
2 10062  60.0000 180.0000 0000000   0.0000 144.0000  7.15312845    12
CTC1_L_00580007-04
1 10063U 25051EQ  26075.70038194  .00000000  00000+0  00000-0 0  9994
2 10063  60.0000 180.0000 0000000   0.0000 180.0000  7.15312845    13
CTC1_L_00580007-05
1 10064U 26469DP  26075.70038194  .00000000  00000+0  00000-0 0  9999
2 10064  60.0000 180.0000 0000000   0.0000 216.0000  7.15312845    14
CTC1_L_00580007-06
1 10065U 22942YE  26075.70038194  .00000000  00000+0  00000-0 0  9992
2 10065  60.0000 180.0000 0000000   0.0000 252.0000  7.15312845    15
CTC1_L_00580007-07
1 10066U 23918AA  26075.70038194  .00000000  00000+0  00000-0 0  9997
2 10066  60.0000 180.0000 0000000   0.0000 288.0000  7.15312845    15
CTC1_L_00580007-08
1 10067U 23742OU  26075.70038194  .00000000  00000+0  00000-0 0  9993
2 10067  60.0000 180.0000 0000000   0.0000 324.0000  7.15312845    17
CTC1_L_00580007-09
1 10068U 25750MX  26075.70038194  .00000000  00000+0  00000-0 0  9995
2 10068  60.0000 180.0000 0000000   0.0000   0.0000  7.15312845    19
CTC1_L_00580007-10
1 10069U 26963WZ  26075.70038194  .00000000  00000+0  00000-0 0  9993
2 10069  60.0000 180.0000 0000000   0.0000  36.0000  7.15312845    19
CTC1_L_00580008-01
1 10070U 24145VN  26075.70038194  .00000000  00000+0  00000-0 0  9995
2 10070  60.0000 210.0000 0000000   0.0000  84.0000  7.15312845    18
CTC1_L_00580008-02
1 10071U 26802F   26075.70038194  .00000000  00000+0  00000-0 0  9998
2 10071  60.0000 210.0000 0000000   0.0000 120.0000  7.15312845    10
CTC1_L_00580008-03
1 10072U 25024ML  26075.70038194  .00000000  00000+0  00000-0 0  9994
2 10072  60.0000 210.0000 0000000   0.0000 156.0000  7.15312845    10
CTC1_L_00580008-04
1 10073U 24046LO  26075.70038194  .00000000  00000+0  00000-0 0  9998
2 10073  60.0000 210.0000 0000000   0.0000 192.0000  7.15312845    11
CTC1_L_00580008-05
1 10074U 26545MU  26075.70038194  .00000000  00000+0  00000-0 0  9995
2 10074  60.0000 210.0000 0000000   0.0000 228.0000  7.15312845    12
CTC1_L_00580008-06
1 10075U 25137ZM  26075.70038194  .00000000  00000+0  00000-0 0  9992
2 10075  60.0000 210.0000 0000000   0.0000 264.0000  7.15312845    13
CTC1_L_00580008-07
1 10076U 25334OD  26075.70038194  .00000000  00000+0  00000-0 0  9992
2 10076  60.0000 210.0000 0000000   0.0000 300.0000  7.15312845    15
CTC1_L_00580008-08
1 10077U 22638RG  26075.70038194  .00000000  00000+0  00000-0 0  9997
2 10077  60.0000 210.0000 0000000   0.0000 336.0000  7.15312845    15
CTC1_L_00580008-09
1 10078U 22439VX  26075.70038194  .00000000  00000+0  00000-0 0  9997
2 10078  60.0000 210.0000 0000000   0.0000  12.0000  7.15312845    17
CTC1_L_00580008-10
1 10079U 25309FQ  26075.70038194  .00000000  00000+0  00000-0 0  9997
2 10079  60.0000 210.0000 0000000   0.0000  48.0000  7.15312845    17
CTC1_L_00580009-01
1 10080U 23716EH  26075.70038194  .00000000  00000+0  00000-0 0  9999
2 10080  60.0000 240.0000 0000000   0.0000  96.0000  7.15312845    15
CTC1_L_00580009-02
1 10081U 22160JA  26075.70038194  .00000000  00000+0  00000-0 0  9992
2 10081  60.0000 240.0000 0000000   0.0000 132.0000  7.15312845    17
CTC1_L_00580009-03
1 10082U 26677OL  26075.70038194  .00000000  00000+0  00000-0 0  9990
2 10082  60.0000 240.0000 0000000   0.0000 168.0000  7.15312845    17
CTC1_L_00580009-04
1 10083U 23426FM  26075.70038194  .00000000  00000+0  00000-0 0  9990
2 10083  60.0000 240.0000 0000000   0.0000 204.0000  7.15312845    19
CTC1_L_00580009-05
1 10084U 25488DT  26075.70038194  .00000000  00000+0  00000-0 0  9991
2 10084  60.0000 240.0000 0000000   0.0000 240.0000  7.15312845    10
CTC1_L_00580009-06
1 10085U 26454WQ  26075.70038194  .00000000  00000+0  00000-0 0  9996
2 10085  60.0000 240.0000 0000000   0.0000 276.0000  7.15312845    10
CTC1_L_00580009-07
1 10086U 24303GA  26075.70038194  .00000000  00000+0  00000-0 0  9998
2 10086  60.0000 240.0000 0000000   0.0000 312.0000  7.15312845    12
CTC1_L_00580009-08
1 10087U 24834HW  26075.70038194  .00000000  00000+0  00000-0 0  9998
2 10087  60.0000 240.0000 0000000   0.0000 348.0000  7.15312845    12
CTC1_L_00580009-09
1 10088U 23809IG  26075.70038194  .00000000  00000+0  00000-0 0  9990
2 10088  60.0000 240.0000 0000000   0.0000  24.0000  7.15312845    14
CTC1_L_00580009-10
1 10089U 26359VO  26075.70038194  .00000000  00000+0  00000-0 0  9994
2 10089  60.0000 240.0000 0000000   0.0000  60.0000  7.15312845    15
CTC1_L_00580010-01
1 10090U 26299KN  26075.70038194  .00000000  00000+0  00000-0 0  9999
2 10090  60.0000 270.0000 0000000   0.0000 108.0000  7.15312845    13
CTC1_L_00580010-02
1 10091U 22602KQ  26075.70038194  .00000000  00000+0  00000-0 0  9994
2 10091  60.0000 270.0000 0000000   0.0000 144.0000  7.15312845    14
CTC1_L_00580010-03
1 10092U 22296DM  26075.70038194  .00000000  00000+0  00000-0 0  9994
2 10092  60.0000 270.0000 0000000   0.0000 180.0000  7.15312845    15
CTC1_L_00580010-04
1 10093U 25005XN  26075.70038194  .00000000  00000+0  00000-0 0  9996
2 10093  60.0000 270.0000 0000000   0.0000 216.0000  7.15312845    16
CTC1_L_00580010-05
1 10094U 26167DM  26075.70038194  .00000000  00000+0  00000-0 0  9997
2 10094  60.0000 270.0000 0000000   0.0000 252.0000  7.15312845    17
CTC1_L_00580010-06
1 10095U 24578YD  26075.70038194  .00000000  00000+0  00000-0 0  9992
2 10095  60.0000 270.0000 0000000   0.0000 288.0000  7.15312845    17
CTC1_L_00580010-07
1 10096U 25278DQ  26075.70038194  .00000000  00000+0  00000-0 0  9991
2 10096  60.0000 270.0000 0000000   0.0000 324.0000  7.15312845    19
CTC1_L_00580010-08
1 10097U 26084NX  26075.70038194  .00000000  00000+0  00000-0 0  9998
2 10097  60.0000 270.0000 0000000   0.0000   0.0000  7.15312845    11
CTC1_L_00580010-09
1 10098U 25101NQ  26075.70038194  .00000000  00000+0  00000-0 0  9998
2 10098  60.0000 270.0000 0000000   0.0000  36.0000  7.15312845    11
CTC1_L_00580010-10
1 10099U 24165SA  26075.70038194  .00000000  00000+0  00000-0 0  9998
2 10099  60.0000 270.0000 0000000   0.0000  72.0000  7.15312845    12
CTC1_L_00580011-01
1 10100U 24760NL  26075.70038194  .00000000  00000+0  00000-0 0  9992
2 10100  60.0000 300.0000 0000000   0.0000 120.0000  7.15312845    13
CTC1_L_00580011-02
1 10101U 25143GC  26075.70038194  .00000000  00000+0  00000-0 0  9999
2 10101  60.0000 300.0000 0000000   0.0000 156.0000  7.15312845    13
CTC1_L_00580011-03
1 10102U 23859KO  26075.70038194  .00000000  00000+0  00000-0 0  9992
2 10102  60.0000 300.0000 0000000   0.0000 192.0000  7.15312845    14
CTC1_L_00580011-04
1 10103U 26601SL  26075.70038194  .00000000  00000+0  00000-0 0  9991
2 10103  60.0000 300.0000 0000000   0.0000 228.0000  7.15312845    15
CTC1_L_00580011-05
1 10104U 24959UP  26075.70038194  .00000000  00000+0  00000-0 0  9996
2 10104  60.0000 300.0000 0000000   0.0000 264.0000  7.15312845    16
CTC1_L_00580011-06
1 10105U 24280NL  26075.70038194  .00000000  00000+0  00000-0 0  9994
2 10105  60.0000 300.0000 0000000   0.0000 300.0000  7.15312845    18
CTC1_L_00580011-07
1 10106U 22315OT  26075.70038194  .00000000  00000+0  00000-0 0  9992
2 10106  60.0000 300.0000 0000000   0.0000 336.0000  7.15312845    18
CTC1_L_00580011-08
1 10107U 24622NA  26075.70038194  .00000000  00000+0  00000-0 0  9996
2 10107  60.0000 300.0000 0000000   0.0000  12.0000  7.15312845    10
CTC1_L_00580011-09
1 10108U 25475RI  26075.70038194  .00000000  00000+0  00000-0 0  9994
2 10108  60.0000 300.0000 0000000   0.0000  48.0000  7.15312845    10
CTC1_L_00580011-10
1 10109U 26689ZC  26075.70038194  .00000000  00000+0  00000-0 0  9993
2 10109  60.0000 300.0000 0000000   0.0000  84.0000  7.15312845    11
CTC1_L_00580012-01
1 10110U 25318QR  26075.70038194  .00000000  00000+0  00000-0 0  9993
2 10110  60.0000 330.0000 0000000   0.0000 132.0000  7.15312845    10
CTC1_L_00580012-02
1 10111U 23790CN  26075.70038194  .00000000  00000+0  00000-0 0  9996
2 10111  60.0000 330.0000 0000000   0.0000 168.0000  7.15312845    10
CTC1_L_00580012-03
1 10112U 22422QC  26075.70038194  .00000000  00000+0  00000-0 0  9998
2 10112  60.0000 330.0000 0000000   0.0000 204.0000  7.15312845    12
CTC1_L_00580012-04
1 10113U 24513CV  26075.70038194  .00000000  00000+0  00000-0 0  9992
2 10113  60.0000 330.0000 0000000   0.0000 240.0000  7.15312845    13
CTC1_L_00580012-05
1 10114U 23045FF  26075.70038194  .00000000  00000+0  00000-0 0  9992
2 10114  60.0000 330.0000 0000000   0.0000 276.0000  7.15312845    13
CTC1_L_00580012-06
1 10115U 25787UB  26075.70038194  .00000000  00000+0  00000-0 0  9998
2 10115  60.0000 330.0000 0000000   0.0000 312.0000  7.15312845    15
CTC1_L_00580012-07
1 10116U 24535VM  26075.70038194  .00000000  00000+0  00000-0 0  9999
2 10116  60.0000 330.0000 0000000   0.0000 348.0000  7.15312845    15
CTC1_L_00580012-08
1 10117U 25326PX  26075.70038194  .00000000  00000+0  00000-0 0  9999
2 10117  60.0000 330.0000 0000000   0.0000  24.0000  7.15312845    17
CTC1_L_00580012-09
1 10118U 26856TJ  26075.70038194  .00000000  00000+0  00000-0 0  9999
2 10118  60.0000 330.0000 0000000   0.0000  60.0000  7.15312845    18
CTC1_L_00580012-10
1 10119U 23162KC  26075.70038194  .00000000  00000+0  00000-0 0  9997
2 10119  60.0000 330.0000 0000000   0.0000  96.0000  7.15312845    18
